OBJECT_NAME,OBJECT_ID,EPOCH,MEAN_MOTION,ECCENTRICITY,INCLINATION,RA_OF_ASC_NODE,ARG_OF_PERICENTER,MEAN_ANOMALY,EPHEMERIS_TYPE,CLASSIFICATION_TYPE,NORAD_CAT_ID,ELEMENT_SET_NO,REV_AT_EPOCH,BSTAR,MEAN_MOTION_DOT,MEAN_MOTION_DDOT
ALOS-2,2014-029A,2026-07-16T06:56:03.858720,14.79467481,.00015627,97.9234,294.0363,92.1528,267.9863,0,U,39766,999,65588,.59418495E-4,.392E-5,0
KAZEOSAT 2,2014-033A,2026-07-16T06:17:19.231296,14.85502422,.00074017,97.5390,35.3361,215.3564,144.7162,0,U,40010,999,65327,.53713987E-4,.414E-5,0
HODOYOSHI-4,2014-033B,2026-07-16T06:47:23.501760,14.88192359,.00226893,97.5454,20.7024,205.6976,154.3116,0,U,40011,999,65313,.99504326E-4,.869E-5,0
DEIMOS-2,2014-033D,2026-07-16T06:07:41.148768,14.93796018,.00010255,97.5786,70.7181,109.2615,250.8716,0,U,40013,999,64206,.80524938E-4,.8E-5,0
HODOYOSHI-3,2014-033F,2026-07-16T00:23:20.060160,14.85438102,.00313128,97.6447,358.9018,259.0598,100.7094,0,U,40015,999,65190,.60987382E-4,.477E-5,0
SPOT 7,2014-034A,2026-07-16T06:56:24.304416,14.60981708,.00016043,98.0618,259.0290,94.5578,265.5807,0,U,40053,999,64138,.58832976E-4,.243E-5,0
SKYSAT-B,2014-037D,2026-07-15T20:06:04.998240,14.88092801,.00056261,98.3854,157.4397,170.7304,189.4016,0,U,40072,999,65022,.71933668E-4,.6E-5,0
WORLDVIEW-3 (WV-3),2014-048A,2026-07-16T06:36:18.743616,14.85065123,.00013831,97.8556,271.7054,154.3041,205.8242,0,U,40115,999,64622,.48506757E-4,.361E-5,0
GAOFEN-2,2014-049A,2026-07-16T07:08:42.397152,14.80928918,.00083353,98.0099,261.4754,131.3506,228.8425,0,U,40118,999,64354,.39554262E-4,.253E-5,0
YAOGAN-21,2014-053A,2026-07-16T06:22:56.775360,15.26766524,.00076625,97.1450,236.2582,4.3871,355.7434,0,U,40143,999,65939,.10388216E-3,.2665E-4,0
YAOGAN-22,2014-063A,2026-07-16T00:13:00.279264,13.15531517,.00068784,100.7763,348.7655,123.5095,236.6674,0,U,40275,999,56360,-.6287038E-5,-.49E-6,0
ASNARO,2014-070A,2026-07-16T06:19:47.550720,15.19391455,.0004811,97.3448,272.5967,84.8693,275.3090,0,U,40298,999,64842,.23431701E-3,.4893E-4,0
YAOGAN-24,2014-072A,2026-07-16T07:08:22.818048,14.76119930,.0014712,98.1526,334.8831,166.1719,193.9896,0,U,40310,999,62801,.69207129E-4,.425E-5,0
CBERS 4,2014-079A,2026-07-16T07:29:12.505056,14.35516200,.00007709,98.3518,253.2276,53.1156,307.0101,0,U,40336,999,60813,.30283331E-4,.45E-6,0
YAOGAN-26,2014-088A,2026-07-16T06:55:14.962368,15.48474798,.00017311,97.0644,196.8396,336.4671,23.6501,0,U,40362,999,64220,.27406966E-3,.1448E-3,0
SMAP,2015-003A,2026-07-16T04:59:28.747104,14.63389574,.00016078,98.1284,203.8924,94.6000,265.5386,0,U,40376,999,61186,.40653907E-4,.163E-5,0
KOMPSAT-3A,2015-014A,2026-07-16T06:27:28.960416,15.55468046,.00561751,97.6891,190.7912,71.8779,288.8581,0,U,40536,999,62633,.26728274E-3,.19471E-3,0
SENTINEL-2A,2015-028A,2026-07-16T07:20:04.572672,14.30814775,.00012907,98.5682,271.7425,94.8749,265.2581,0,U,40697,999,57789,.42683085E-4,.68E-6,0
GAOFEN-8,2015-030A,2026-07-16T06:28:24.603744,15.46960184,.00099459,97.6887,32.4056,92.1966,268.0421,0,U,40701,999,61594,.99408404E-4,.4919E-4,0
CARBONITE 1 (CBNT-1),2015-032D,2026-07-16T07:38:12.568128,14.83669746,.00139937,97.6514,14.1673,193.1410,166.9442,0,U,40718,999,59366,.12553626E-3,.987E-5,0
YAOGAN-27,2015-040A,2026-07-16T07:07:02.856576,13.16073280,.00085399,100.1167,182.4183,142.5644,217.6066,0,U,40878,999,52149,.5440319E-3,.164E-5,0
GAOFEN-9 01,2015-047A,2026-07-16T06:42:59.980032,14.82936115,.00283899,97.6264,231.6514,47.0727,313.2863,0,U,40894,999,58450,.62681881E-4,.461E-5,0
YAOGAN-28,2015-064A,2026-07-16T08:11:14.203104,15.27768178,.00120736,97.3113,335.0210,89.5315,270.7308,0,U,41026,999,59513,.12736949E-3,.3388E-4,0
YAOGAN-29,2015-069A,2026-07-16T06:09:06.625152,14.83109099,.00006495,98.0016,225.9336,14.3964,345.7268,0,U,41038,999,57493,.84219878E-4,.632E-5,0
KENT RIDGE 1,2015-077B,2026-07-16T05:42:00.078624,15.23286863,.00082821,14.9804,49.9101,289.5627,70.3801,0,U,41167,999,58553,.63609999E-4,.2315E-4,0
GAOFEN-4,2015-083A,2026-07-16T02:13:38.789184,1.00272137,.0004273,0.4297,83.7450,126.0507,223.2413,0,U,41194,999,3881,0,-.345E-5,0
JASON-3,2016-002A,2026-07-16T06:49:24.443616,12.87628714,.00081727,66.0416,64.6625,270.8706,89.1376,0,U,41240,999,49099,.1421452E-3,-.26E-6,0
SENTINEL-3A,2016-011A,2026-07-16T06:00:27.858816,14.26739936,.00013542,98.6237,264.2145,89.5572,270.5763,0,U,41335,999,54220,.36891574E-4,.46E-6,0
ZIYUAN 3-02 (ZY 3-02),2016-033A,2026-07-16T06:17:10.452192,15.21439947,.00142009,97.3826,272.4773,181.2225,178.8979,0,U,41556,999,56240,.11976308E-3,.2627E-4,0
CARTOSAT-2C,2016-040A,2026-07-16T07:18:12.428928,15.19271438,.00095015,97.4466,256.8791,41.0785,319.1163,0,U,41599,999,55813,.16474095E-3,.3409E-4,0
