ALOS-2                  
1 39766U 14029A   26197.28893355  .00000392  00000+0  59418-4 0  9999
2 39766  97.9234 294.0363 0001562  92.1528 267.9863 14.79467481655889
KAZEOSAT 2              
1 40010U 14033A   26197.26202814  .00000414  00000+0  53714-4 0  9998
2 40010  97.5390  35.3361 0007401 215.3564 144.7162 14.85502422653270
HODOYOSHI-4             
1 40011U 14033B   26197.28291090  .00000869  00000+0  99504-4 0  9996
2 40011  97.5454  20.7024 0022689 205.6976 154.3116 14.88192359653138
DEIMOS-2                
1 40013U 14033D   26197.25533737  .00000800  00000+0  80525-4 0  9990
2 40013  97.5786  70.7181 0001025 109.2615 250.8716 14.93796018642063
HODOYOSHI-3             
1 40015U 14033F   26197.01620440  .00000477  00000+0  60987-4 0  9994
2 40015  97.6447 358.9018 0031312 259.0598 100.7094 14.85438102651909
SPOT 7                  
1 40053U 14034A   26197.28917019  .00000243  00000+0  58833-4 0  9995
2 40053  98.0618 259.0290 0001604  94.5578 265.5807 14.60981708641381
SKYSAT-B                
1 40072U 14037D   26196.83755785  .00000600  00000+0  71934-4 0  9993
2 40072  98.3854 157.4397 0005626 170.7304 189.4016 14.88092801650224
WORLDVIEW-3 (WV-3)      
1 40115U 14048A   26197.27521694  .00000361  00000+0  48507-4 0  9996
2 40115  97.8556 271.7054 0001383 154.3041 205.8242 14.85065123646220
GAOFEN-2                
1 40118U 14049A   26197.29771293  .00000253  00000+0  39554-4 0  9996
2 40118  98.0099 261.4754 0008335 131.3506 228.8425 14.80928918643541
YAOGAN-21               
1 40143U 14053A   26197.26593490  .00002665  00000+0  10388-3 0  9999
2 40143  97.1450 236.2582 0007662   4.3871 355.7434 15.26766524659399
YAOGAN-22               
1 40275U 14063A   26197.00903101 -.00000049  00000+0 -62870-5 0  9993
2 40275 100.7763 348.7655 0006878 123.5095 236.6674 13.15531517563602
ASNARO                  
1 40298U 14070A   26197.26374480  .00004893  00000+0  23432-3 0  9994
2 40298  97.3448 272.5967 0004811  84.8693 275.3090 15.19391455648423
YAOGAN-24               
1 40310U 14072A   26197.29748632  .00000425  00000+0  69207-4 0  9996
2 40310  98.1526 334.8831 0014712 166.1719 193.9896 14.76119930628010
CBERS 4                 
1 40336U 14079A   26197.31195029  .00000045  00000+0  30283-4 0  9990
2 40336  98.3518 253.2276 0000770  53.1156 307.0101 14.35516200608131
YAOGAN-26               
1 40362U 14088A   26197.28836762  .00014480  00000+0  27407-3 0  9992
2 40362  97.0644 196.8396 0001731 336.4671  23.6501 15.48474798642209
SMAP                    
1 40376U 15003A   26197.20797161  .00000163  00000+0  40654-4 0  9999
2 40376  98.1284 203.8924 0001607  94.6000 265.5386 14.63389574611862
KOMPSAT-3A              
1 40536U 15014A   26197.26908519  .00019471  00000+0  26728-3 0  9993
2 40536  97.6891 190.7912 0056175  71.8779 288.8581 15.55468046626336
SENTINEL-2A             
1 40697U 15028A   26197.30560848  .00000068  00000+0  42683-4 0  9991
2 40697  98.5682 271.7425 0001290  94.8749 265.2581 14.30814775577892
GAOFEN-8                
1 40701U 15030A   26197.26972921  .00004919  00000+0  99408-4 0  9990
2 40701  97.6887  32.4056 0009945  92.1966 268.0421 15.46960184615941
CARBONITE 1 (CBNT-1)    
1 40718U 15032D   26197.31820102  .00000987  00000+0  12554-3 0  9996
2 40718  97.6514  14.1673 0013993 193.1410 166.9442 14.83669746593665
YAOGAN-27               
1 40878U 15040A   26197.29656084  .00000164  00000+0  54403-3 0  9991
2 40878 100.1167 182.4183 0008539 142.5644 217.6066 13.16073280521493
GAOFEN-9 01             
1 40894U 15047A   26197.27986088  .00000461  00000+0  62682-4 0  9993
2 40894  97.6264 231.6514 0028389  47.0727 313.2863 14.82936115584508
YAOGAN-28               
1 41026U 15064A   26197.34113661  .00003388  00000+0  12737-3 0  9993
2 41026  97.3113 335.0210 0012073  89.5315 270.7308 15.27768178595139
YAOGAN-29               
1 41038U 15069A   26197.25632668  .00000632  00000+0  84220-4 0  9990
2 41038  98.0016 225.9336 0000649  14.3964 345.7268 14.83109099574935
KENT RIDGE 1            
1 41167U 15077B   26197.23750091  .00002315  00000+0  63610-4 0  9991
2 41167  14.9804  49.9101 0008282 289.5627  70.3801 15.23286863585539
GAOFEN-4                
1 41194U 15083A   26197.09281006 -.00000345  00000+0  00000+0 0  9998
2 41194   0.4297  83.7450 0004273 126.0507 223.2413  1.00272137 38817
JASON-3                 
1 41240U 16002A   26197.28431069 -.00000026  00000+0  14215-3 0  9992
2 41240  66.0416  64.6625 0008172 270.8706  89.1376 12.87628714490994
SENTINEL-3A             
1 41335U 16011A   26197.25032244  .00000046  00000+0  36892-4 0  9993
2 41335  98.6237 264.2145 0001354  89.5572 270.5763 14.26739936542209
ZIYUAN 3-02 (ZY 3-02)   
1 41556U 16033A   26197.26192653  .00002627  00000+0  11976-3 0  9996
2 41556  97.3826 272.4773 0014200 181.2225 178.8979 15.21439947562409
CARTOSAT-2C             
1 41599U 16040A   26197.30431052  .00003409  00000+0  16474-3 0  9992
2 41599  97.4466 256.8791 0009501  41.0785 319.1163 15.19271438558131
